[{"OBJECT_NAME":"UNIFORM 1","OBJECT_ID":"2014-029B","EPOCH":"2026-03-09T20:40:30.377280","MEAN_MOTION":14.95353458,"ECCENTRICITY":0.00039155,"INCLINATION":97.8,"RA_OF_ASC_NODE":166.6615,"ARG_OF_PERICENTER":280.7355,"MEAN_ANOMALY":79.3425,"EPHEMERIS_TYPE":0,"CLASSIFICATION_TYPE":"U","NORAD_CAT_ID":39767,"ELEMENT_SET_NO":999,"REV_AT_EPOCH":63937,"BSTAR":0.00032279385,"MEAN_MOTION_DOT":3.504e-5,"MEAN_MOTION_DDOT":0},{"OBJECT_NAME":"ARVAKER-1","OBJECT_ID":"2025-052AU","EPOCH":"2026-03-09T15:31:39.211104","MEAN_MOTION":14.94134969,"ECCENTRICITY":0.0002607,"INCLINATION":97.6986,"RA_OF_ASC_NODE":321.8556,"ARG_OF_PERICENTER":153.6434,"MEAN_ANOMALY":206.4919,"EPHEMERIS_TYPE":0,"CLASSIFICATION_TYPE":"U","NORAD_CAT_ID":63252,"ELEMENT_SET_NO":999,"REV_AT_EPOCH":5374,"BSTAR":0.00034613,"MEAN_MOTION_DOT":3.647e-5,"MEAN_MOTION_DDOT":0}]
