UNIFORM 1               
1 39767U 14029B   26068.86146270  .00003504  00000+0  32279-3 0  9991
2 39767  97.8000 166.6615 0003915 280.7355  79.3425 14.95353458639372
ARVAKER-1               
1 63252U 25052AU  26068.64698161  .00003647  00000+0  34613-3 0  9994
2 63252  97.6986 321.8556 0002607 153.6434 206.4919 14.94134969 53746
